#aV2008  5 23  0  0   .00000000      96 DD+AD WGS84 FIT  NGA
## 1480 432000.00000000   900.00000000 54609  .0000000000000
+   31     2  3  4  5  6  7  8  9 10 11 12 13 14 15 16 17 18
+         19 20 21 22 23 24 25 26 27 28 29 30 31 32  0  0  0
+          0  0  0  0  0  0  0  0  0  0  0  0  0  0  0  0  0
+          0  0  0  0  0  0  0  0  0  0  0  0  0  0  0  0  0
+          0  0  0  0  0  0  0  0  0  0  0  0  0  0  0  0  0
++         0  0  0  0  0  0  0  0  0  0  0  0  0  0  0  0  0
++         0  0  0  0  0  0  0  0  0  0  0  0  0  0  0  0  0
++         0  0  0  0  0  0  0  0  0  0  0  0  0  0  0  0  0
++         0  0  0  0  0  0  0  0  0  0  0  0  0  0  0  0  0
++         0  0  0  0  0  0  0  0  0  0  0  0  0  0  0  0  0
%c cc cc ccc ccc cccc cccc cccc cccc ccccc ccccc ccccc ccccc
%c cc cc ccc ccc cccc cccc cccc cccc ccccc ccccc ccccc ccccc
%f  0.0000000  0.000000000  0.00000000000  0.000000000000000
%f  0.0000000  0.000000000  0.00000000000  0.000000000000000
%i    0    0    0    0      0      0      0      0         0
%i    0    0    0    0      0      0      0      0         0
/*      NGA, ST. LOUIS,MO.                                  
/*   EPHEMERIS COMPUTED FROM  3 DAYS OF DATA                
/* CCCCCCCCCCCCCCCCCCCCCCCCCCCCCCCCCCCCCCCCCCCCCCCCCCCCCCCCC
/* CCCCCCCCCCCCCCCCCCCCCCCCCCCCCCCCCCCCCCCCCCCCCCCCCCCCCCCCC
*  2008  5 23 16 30   .00000000                                                 
P  2  14589.964778   5992.149428 -21548.502824    204.760025                    
V  2  -6705.173392  26185.571819   2409.447849       .019096                    
P  3 -23031.999212  -8331.740874  10442.186413    232.185641                    
V  3  -8609.781337 -10988.458400 -26740.740850       .052857                    
P  4   9181.038396  16852.461871 -18307.261157    -73.931381                    
V  4  -7980.781427  21909.440456  16611.581079      -.086540                    
P  5  17884.149430 -15826.820866 -11737.484006    779.478950                    
V  5  14669.897203  -2425.823764  26370.482124       .084384                    
P  6 -21478.283573 -15007.243728   4535.062451    133.818759                    
V  6  -1692.354922  -6401.299200 -30425.454241       .084258                    
P  7  -7431.306027  25439.329483  -1066.909928    -36.341818                    
V  7  -2393.100733  -1996.779785 -31801.443642       .087367                    
P  8    562.894025  23602.889333  11591.511661   -154.255477                    
V  8  -6596.058230  13625.809739 -27684.534533      -.017110                    
P  9  13724.401827 -17195.437954  14131.940804    125.784574                    
V  9  -2030.795550  19096.584674  24300.239198       .016990                    
P 10  25176.812540    271.919366  -9096.482014     -1.706338                    
V 10 -10398.562143   4835.449855 -28755.143215      -.002392                    
P 11 -11748.596817  19727.660809  12921.285749     25.375292                    
V 11  -3023.140017 -17220.855213  23599.705097      -.003792                    
P 12  22219.615214 -11902.250476  -8122.751007   -359.059320                    
V 12  10785.957331   -215.930777  29581.175592       .001635                    
P 13    374.438144  18641.573112 -19043.655419    256.616043                    
V 13 -16781.463116 -16955.750033 -17012.431160       .017305                    
P 14 -14514.855406 -21378.579496   6463.800998   -263.573263                    
V 14   6802.769403   4613.119880  30905.667107       .042048                    
P 15  19020.850251    207.888333  18559.754170   -115.402689                    
V 15  15874.970101  17439.987028 -16472.190958      -.057498                    
P 16 -22785.304382  -3653.281588 -13252.045773    124.073704                    
V 16  15844.327536  -6112.421895 -25217.504505      -.014277                    
P 17  14856.932621  21241.331487   6213.487479     38.937047                    
V 17  -7343.483386  -3715.321706  30300.159154      -.001300                    
P 18   5888.719150 -16303.099243  20206.704678   -175.067059                    
V 18  25027.255876  -4568.421082 -11436.226150       .038861                    
P 19 -18567.343344   -683.502233  19135.278929     30.483766                    
V 19 -14940.670527 -18907.599816 -15059.243041       .008535                    
P 20 -20726.387633  13439.078717  -9819.818667    113.729028                    
V 20 -12654.967794    695.650800  28038.372245      -.008185                    
P 21   3753.525074 -25557.799361   4738.904235     63.462679                    
V 21   5482.772339  -4577.491606 -30816.898364      -.011161                    
P 22  -9402.235615 -13437.373997  21053.574906    211.227501                    
V 22  25600.662853  -6602.464591   7218.385351       .002395                    
P 23 -11197.862548  10041.822748 -21966.270532    355.339010                    
V 23 -19645.759588 -19504.905262    863.288920       .021665                    
P 24  12971.543309 -21815.304775  -8128.349749     96.108140                    
V 24   -644.181607  10792.442605 -29113.076733       .029786                    
P 25  -9361.297424  23550.160474  -7890.597729   -171.374627                    
V 25   -728.926344 -10713.792188 -29575.411008      -.263624                    
P 26  19941.799133   5879.242829  16356.188880    259.322253                    
V 26  13788.233627  16424.295904 -21533.353968       .078818                    
P 27  -4062.835628  26151.243499   1603.944122    190.439508                    
V 27  -2825.946032    694.950096 -31962.754810       .026852                    
P 28   7501.016376  13786.271810  21846.794489    -19.287483                    
V 28 -25957.218708   6602.873153   4502.362704      -.002703                    
P 29   2898.461251 -17121.967475 -19984.063032    -43.013100                    
V 29  18673.237546  17605.502471 -12272.922271       .002992                    
P 30  11668.020426 -16728.844357 -17299.782001     77.788836                    
V 30  20962.145002  -4662.003053  19120.741785       .018894                    
P 31  -9589.919768 -15464.701277 -19105.616987    -20.885573                    
V 31   7470.982663 -23591.703963  15290.009736      -.013388                    
P 32 -26091.612639   1625.314943   4613.850551    288.824340                    
V 32   4781.619149  -3515.859268  31335.392765       .050353                    
EOF
